IRIDIUM 144             
1 43249U 18030A   25283.31976982  .00000290  00000+0  96631-4 0  9998
2 43249  86.3999  34.8417 0001992  91.1099 269.0325 14.34215963394321
IRIDIUM 149             
1 43250U 18030B   25283.32610438  .00000270  00000+0  89310-4 0  9996
2 43250  86.3996  34.8086 0002032  92.2822 267.8606 14.34219333394349
IRIDIUM 157             
1 43251U 18030C   25283.27536337  .00000332  00000+0  11134-3 0  9993
2 43251  86.3999  34.8776 0002068 100.4146 259.7283 14.34219293394312
IRIDIUM 140             
1 43252U 18030D   25282.31763375  .00000047  00000+0  97055-5 0  9993
2 43252  86.3995  35.2908 0002260  89.2989 270.8465 14.34217215394233
IRIDIUM 145             
1 43253U 18030E   25283.28170576  .00000361  00000+0  12183-3 0  9992
2 43253  86.3997  34.8608 0001971  83.5322 276.6098 14.34219619394308
IRIDIUM 146             
1 43254U 18030F   25283.26267611  .00000301  00000+0  10054-3 0  9997
2 43254  86.3998  34.8819 0001954  86.9423 273.1996 14.34220025394317
IRIDIUM 148             
1 43255U 18030G   25283.30073432  .00000390  00000+0  13207-3 0  9990
2 43255  86.3998  34.9051 0001956  95.3714 264.7705 14.34219251394353
IRIDIUM 142             
1 43256U 18030H   25283.26902008  .00000378  00000+0  12782-3 0  9999
2 43256  86.3996  34.8166 0001876  81.3920 278.7488 14.34219176394318
